NORAD_CAT_ID,OBJECT_NAME,OBJECT_TYPE,EPOCH,MEAN_MOTION,ECCENTRICITY,INCLINATION,RA_OF_ASC_NODE,ARG_OF_PERICENTER,MEAN_ANOMALY,BSTAR,MEAN_MOTION_DOT,MEAN_MOTION_DDOT,TLE_LINE0,TLE_LINE1,TLE_LINE2,SEMIMAJOR_AXIS,PERIOD,APOGEE,PERIGEE,DECAYED
54015.0,STARLINK-5055,PAYLOAD,2023-02-16 19:14:28,15.08842685,0.0001125,53.2182,177.8143,78.9452,281.1667,1.5259e-05,-4.5e-07,0.0,0 STARLINK-5055,1 54015U 22125BD  23047.80171372 -.00000045  00000-0  15259-4 0  9998,2 54015  53.2182 177.8143 0001125  78.9452 281.1667 15.08842685 21048,6917.872,95.437,540.515,538.959,0.0
54015.0,STARLINK-5055,PAYLOAD,2023-02-17 11:08:19,15.0884168,0.0001464,53.2194,174.8448,70.9109,289.2042,5.3862e-05,5.69e-06,0.0,0 STARLINK-5055,1 54015U 22125BD  23048.46411677  .00000569  00000-0  53862-4 0  9998,2 54015  53.2194 174.8448 0001464  70.9109 289.2042 15.08841680 21098,6917.875,95.437,540.753,538.727,0.0
54015.0,STARLINK-5055,PAYLOAD,2023-02-17 17:29:50,15.0886846,0.0001054,53.2186,173.6484,57.7424,302.367,9.6082e-05,1.243e-05,0.0,0 STARLINK-5055,1 54015U 22125BD  23048.72905528  .00001243  00000-0  96082-4 0  9991,2 54015  53.2186 173.6484 0001054  57.7424 302.3670 15.08868460 21183,6917.793,95.436,540.388,538.929,0.0
54015.0,STARLINK-5055,PAYLOAD,2023-02-18 07:48:21,15.08832084,0.0001905,53.22,170.9803,61.5568,298.5616,-6.8159e-06,-3.97e-06,0.0,0 STARLINK-5055,1 54015U 22125BD  23049.32524731 -.00000397  00000-0 -68159-5 0  9997,2 54015  53.2200 170.9803 0001905  61.5568 298.5616 15.08832084 21271,6917.905,95.438,541.087,538.452,0.0
54015.0,STARLINK-5055,PAYLOAD,2023-02-19 07:39:07,15.08840579,0.0001437,53.2199,166.5164,69.0584,291.0562,6.4432e-05,7.38e-06,0.0,0 STARLINK-5055,1 54015U 22125BD  23050.31884117  .00000738  00000-0  64432-4 0  9991,2 54015  53.2199 166.5164 0001437  69.0584 291.0562 15.08840579 21423,6917.879,95.438,540.738,538.75,0.0
54015.0,STARLINK-5055,PAYLOAD,2023-02-19 14:00:39,15.08853204,0.0001465,53.2185,165.3266,69.2758,290.8391,6.3813e-05,7.28e-06,0.0,0 STARLINK-5055,1 54015U 22125BD  23050.58379215  .00000728  00000-0  63813-4 0  9999,2 54015  53.2185 165.3266 0001465  69.2758 290.8391 15.08853204 21419,6917.84,95.437,540.718,538.692,0.0
54015.0,STARLINK-5055,PAYLOAD,2023-02-19 17:11:25,15.08865049,0.0001294,53.2196,164.7304,72.1404,287.9729,4.8662e-05,4.87e-06,0.0,0 STARLINK-5055,1 54015U 22125BD  23050.71626271  .00000487  00000-0  48662-4 0  9998,2 54015  53.2196 164.7304 0001294  72.1404 287.9729 15.08865049 21487,6917.804,95.436,540.564,538.774,0.0
54015.0,STARLINK-5055,PAYLOAD,2023-02-20 01:08:22,15.08834,0.0001391,53.2189,163.2455,78.698,281.4169,0.0001326,1.823e-05,0.0,0 STARLINK-5055,1 54015U 22125BD  23051.04747898  .00001823  00000-0  13260-3 0  9994,2 54015  53.2189 163.2455 0001391  78.6980 281.4169 15.08834000 21534,6917.899,95.438,540.726,538.801,0.0
54015.0,STARLINK-5055,PAYLOAD,2023-02-20 13:51:27,15.08836883,0.0001316,53.2198,160.8661,91.3877,268.7266,6.6239e-05,7.66e-06,0.0,0 STARLINK-5055,1 54015U 22125BD  23051.57740126  .00000766  00000-0  66239-4 0  9999,2 54015  53.2198 160.8661 0001316  91.3877 268.7266 15.08836883 21560,6917.89,95.438,540.665,538.845,0.0
54015.0,STARLINK-5055,PAYLOAD,2023-02-21 10:31:27,15.08846434,0.0001382,53.2187,157.0014,81.8596,278.2553,1.1506e-05,-1.05e-06,0.0,0 STARLINK-5055,1 54015U 22125BD  23052.43851657 -.00000105  00000-0  11506-4 0  9992,2 54015  53.2187 157.0014 0001382  81.8596 278.2553 15.08846434 21741,6917.861,95.437,540.682,538.77,0.0
54015.0,STARLINK-5055,PAYLOAD,2023-02-21 13:42:13,15.08852973,0.0001295,53.2189,156.407,87.6166,272.4974,6.7399e-05,7.85e-06,0.0,0 STARLINK-5055,1 54015U 22125BD  23052.57098966  .00000785  00000-0  67399-4 0  9997,2 54015  53.2189 156.4070 0001295  87.6166 272.4974 15.08852973 21713,6917.841,95.437,540.602,538.81,0.0
54015.0,STARLINK-5055,PAYLOAD,2023-02-21 18:28:22,15.08864789,0.0001448,53.2202,155.513,90.6309,269.4849,7.6762e-05,9.35e-06,0.0,0 STARLINK-5055,1 54015U 22125BD  23052.76969950  .00000935  00000-0  76762-4 0  9999,2 54015  53.2202 155.5130 0001448  90.6309 269.4849 15.08864789 21792,6917.805,95.436,540.671,538.668,0.0
54015.0,STARLINK-5055,PAYLOAD,2023-02-21 23:14:33,15.08834186,0.000115,53.2196,154.6215,97.4482,262.6641,-0.00020134,-3.49e-05,0.0,0 STARLINK-5055,1 54015U 22125BD  23052.96844435 -.00003490  00000-0 -20134-3 0  9993,2 54015  53.2196 154.6215 0001150  97.4482 262.6641 15.08834186 21822,6917.898,95.438,540.559,538.968,0.0
54015.0,STARLINK-5055,PAYLOAD,2023-02-22 11:57:38,15.08835175,0.000118,53.2174,152.242,89.8846,270.2281,6.5212e-05,7.5e-06,0.0,0 STARLINK-5055,1 54015U 22125BD  23053.49835961  .00000750  00000-0  65212-4 0  9997,2 54015  53.2174 152.2420 0001180  89.8846 270.2281 15.08835175 21905,6917.895,95.438,540.576,538.944,0.0
54015.0,STARLINK-5055,PAYLOAD,2023-02-22 15:08:23,15.08847458,0.0001434,53.2197,151.6506,104.1829,255.9322,6.2509e-05,7.07e-06,0.0,0 STARLINK-5055,1 54015U 22125BD  23053.63083124  .00000707  00000-0  62509-4 0  9997,2 54015  53.2197 151.6506 0001434 104.1829 255.9322 15.08847458 21927,6917.858,95.437,540.715,538.731,0.0
54015.0,STARLINK-5055,PAYLOAD,2023-02-22 23:05:19,15.08842761,0.0001105,53.2184,150.1623,85.1665,274.9453,-1.5935e-05,-5.41e-06,0.0,0 STARLINK-5055,1 54015U 22125BD  23053.96203496 -.00000541  00000-0 -15935-4 0  9998,2 54015  53.2184 150.1623 0001105  85.1665 274.9453 15.08842761 21971,6917.872,95.437,540.501,538.973,0.0
54015.0,STARLINK-5055,PAYLOAD,2023-02-23 11:48:25,15.08835271,0.0001439,53.2199,147.7861,105.4514,254.6637,-6.2602e-05,-1.284e-05,0.0,0 STARLINK-5055,1 54015U 22125BD  23054.49196409 -.00001284  00000-0 -62602-4 0  9990,2 54015  53.2199 147.7861 0001439 105.4514 254.6637 15.08835271 22004,6917.895,95.438,540.755,538.764,0.0
54015.0,STARLINK-5055,PAYLOAD,2023-02-23 16:34:34,15.08850549,0.0001301,53.2207,146.8928,98.1644,261.9496,-8.0751e-05,-1.573e-05,0.0,0 STARLINK-5055,1 54015U 22125BD  23054.69067379 -.00001573  00000-0 -80751-4 0  9991,2 54015  53.2207 146.8928 0001301  98.1644 261.9496 15.08850549 22030,6917.848,95.437,540.613,538.813,0.0
54015.0,STARLINK-5055,PAYLOAD,2023-02-23 22:56:07,15.08841587,0.0001399,53.2192,145.7008,86.2826,273.8326,-0.00011047,-2.046e-05,0.0,0 STARLINK-5055,1 54015U 22125BD  23054.95564167 -.00002046  00000-0 -11047-3 0  9994,2 54015  53.2192 145.7008 0001399  86.2826 273.8326 15.08841587 22123,6917.876,95.437,540.708,538.773,0.0
54015.0,STARLINK-5055,PAYLOAD,2023-02-24 10:03:50,15.08822897,0.0001285,53.2203,143.6219,100.6324,259.4813,0.00012831,1.754e-05,0.0,0 STARLINK-5055,1 54015U 22125BD  23055.41933080  .00001754  00000-0  12831-3 0  9995,2 54015  53.2203 143.6219 0001285 100.6324 259.4813 15.08822897 22196,6917.933,95.439,540.687,538.909,0.0
54015.0,STARLINK-5055,PAYLOAD,2023-02-24 11:39:13,15.08834558,0.000126,53.2197,143.3244,101.8882,258.2252,-4.0847e-05,-9.38e-06,0.0,0 STARLINK-5055,1 54015U 22125BD  23055.48556747 -.00000938  00000-0 -40847-4 0  9997,2 54015  53.2197 143.3244 0001260 101.8882 258.2252 15.08834558 22155,6917.897,95.438,540.634,538.89,0.0
54015.0,STARLINK-5055,PAYLOAD,2023-02-24 14:49:58,15.08845304,0.0001185,53.2194,142.7265,115.825,244.2864,4.4522e-05,4.21e-06,0.0,0 STARLINK-5055,1 54015U 22125BD  23055.61803740  .00000421  00000-0  44522-4 0  9999,2 54015  53.2194 142.7265 0001185 115.8250 244.2864 15.08845304 22221,6917.864,95.437,540.549,538.909,0.0
54015.0,STARLINK-5055,PAYLOAD,2023-02-24 22:46:54,15.08835839,0.0001144,53.2195,141.2414,97.7921,262.3201,-4.929e-05,-1.072e-05,0.0,0 STARLINK-5055,1 54015U 22125BD  23055.94924716 -.00001072  00000-0 -49290-4 0  9994,2 54015  53.2195 141.2414 0001144  97.7921 262.3201 15.08835839 22273,6917.893,95.438,540.55,538.967,0.0
54015.0,STARLINK-5055,PAYLOAD,2023-02-25 14:40:45,15.08844571,0.000102,53.2197,138.266,103.244,256.8666,7.2754e-05,8.7e-06,0.0,0 STARLINK-5055,1 54015U 22125BD  23056.61164223  .00000870  00000-0  72754-4 0  9992,2 54015  53.2197 138.2660 0001020 103.2440 256.8666 15.08844571 22328,6917.866,95.437,540.437,539.026,0.0
54015.0,STARLINK-5055,PAYLOAD,2023-02-26 14:31:31,15.08863356,0.0001242,53.2198,133.8055,114.9363,245.1758,0.00024359,3.593e-05,0.0,0 STARLINK-5055,1 54015U 22125BD  23057.60522475  .00003593  00000-0  24359-3 0  9991,2 54015  53.2198 133.8055 0001242 114.9363 245.1758 15.08863356 22478,6917.809,95.436,540.533,538.815,0.0
54015.0,STARLINK-5055,PAYLOAD,2023-02-26 22:28:29,15.08838644,0.0001601,53.2195,132.321,71.2205,288.8961,-3.1393e-05,-7.88e-06,0.0,0 STARLINK-5055,1 54015U 22125BD  23057.93644907 -.00000788  00000-0 -31393-4 0  9994,2 54015  53.2195 132.3210 0001601  71.2205 288.8961 15.08838644 22574,6917.885,95.438,540.857,538.642,0.0
54015.0,STARLINK-5055,PAYLOAD,2023-02-27 08:00:48,15.08834747,0.0001461,53.2178,130.537,78.6404,281.4752,5.2169e-05,5.42e-06,0.0,0 STARLINK-5055,1 54015U 22125BD  23058.33389161  .00000542  00000-0  52169-4 0  9997,2 54015  53.2178 130.5370 0001461  78.6404 281.4752 15.08834747 22586,6917.896,95.438,540.772,538.751,0.0
54015.0,STARLINK-5055,PAYLOAD,2023-02-27 14:22:18,15.08860086,9.86e-05,53.2194,129.3464,92.1606,267.9499,0.00018395,2.643e-05,0.0,0 STARLINK-5055,1 54015U 22125BD  23058.59883039  .00002643  00000-0  18395-3 0  9994,2 54015  53.2194 129.3464 0000986  92.1606 267.9499 15.08860086 22672,6917.819,95.436,540.366,539.002,0.0
54015.0,STARLINK-5055,PAYLOAD,2023-02-28 11:02:19,15.08863434,0.0001384,53.2206,125.4852,86.1494,273.9657,9.0837e-05,1.159e-05,0.0,0 STARLINK-5055,1 54015U 22125BD  23059.45994466  .00001159  00000-0  90837-4 0  9990,2 54015  53.2206 125.4852 0001384  86.1494 273.9657 15.08863434 22803,6917.809,95.436,540.631,538.716,0.0
54015.0,STARLINK-5055,PAYLOAD,2023-02-28 14:13:04,15.08879776,0.0001055,53.2192,124.8854,95.9437,264.1675,0.00014224,1.979e-05,0.0,0 STARLINK-5055,1 54015U 22125BD  23059.59240928  .00001979  00000-0  14224-3 0  9997,2 54015  53.2192 124.8854 0001055  95.9437 264.1675 15.08879776 22776,6917.759,95.435,540.354,538.894,0.0
